ONEWEB-0647             
1 56079U 23043AK  23361.24859023 -.00000032  00000+0 -11965-3 0  9998
2 56079  87.9001  78.9809 0001457 114.9478 245.1804 13.15548484 37700
ONEWEB-0651             
1 56080U 23043AL  23361.24381686 -.00000231  00000+0 -64723-3 0  9996
2 56080  87.9006  78.9533 0001250  99.7655 260.3617 13.15549248 38902
ONEWEB-0718             
1 56081U 23043AM  23361.23906920  .00000046  00000+0  89026-4 0  9996
2 56081  87.9004  78.9420 0002290  94.6644 265.4748 13.15546824 37719
GSLV R/B                
1 56082U 23043AN  23361.57339969  .00049782  00000+0  72498-3 0  9991
2 56082  87.4090  43.9709 0018806  35.1039 325.1459 15.55330298 42676
ONEWEB-0561             
1 56710U 23068A   23361.31612683  .00000113  00000+0  20124-3 0  9999
2 56710  88.2927  90.6998 0001780 131.9886 228.1407 13.34320482 30209
ONEWEB-0668             
1 56711U 23068B   23361.58334491 -.00684031  00000+0 -32118+0 0  9998
2 56711  87.1065  51.3578 0013831 168.7719 214.2120 14.22742561  5701
ONEWEB-0676             
1 56712U 23068C   23361.58334491 -.00901266  00000+0 -52802+0 0  9993
2 56712  87.0580  51.3545 0015189 162.8928  36.8160 14.11191769  5698
ONEWEB-0677             
1 56713U 23068D   23361.28446157  .00000146  00000+0  26590-3 0  9998
2 56713  88.3261  88.8376 0001212  97.7382 262.3897 13.34769480 30380
